[{"OBJECT_NAME":"ONEWEB-0132","OBJECT_ID":"2020-100W","EPOCH":"2026-03-03T20:31:57.009216","MEAN_MOTION":13.12441039,"ECCENTRICITY":0.00017534,"INCLINATION":87.8992,"RA_OF_ASC_NODE":11.5828,"ARG_OF_PERICENTER":82.6799,"MEAN_ANOMALY":277.4528,"EPHEMERIS_TYPE":0,"CLASSIFICATION_TYPE":"U","NORAD_CAT_ID":47278,"ELEMENT_SET_NO":999,"REV_AT_EPOCH":25076,"BSTAR":0.00064294346,"MEAN_MOTION_DOT":2.44e-6,"MEAN_MOTION_DDOT":0},{"OBJECT_NAME":"ONEWEB-0133","OBJECT_ID":"2020-100X","EPOCH":"2026-03-03T19:06:21.484800","MEAN_MOTION":13.12440839,"ECCENTRICITY":0.00017482,"INCLINATION":87.9001,"RA_OF_ASC_NODE":11.5586,"ARG_OF_PERICENTER":85.6242,"MEAN_ANOMALY":274.5086,"EPHEMERIS_TYPE":0,"CLASSIFICATION_TYPE":"U","NORAD_CAT_ID":47279,"ELEMENT_SET_NO":999,"REV_AT_EPOCH":25091,"BSTAR":-0.00085419454,"MEAN_MOTION_DOT":-2.95e-6,"MEAN_MOTION_DDOT":0},{"OBJECT_NAME":"ONEWEB-0134","OBJECT_ID":"2020-100Y","EPOCH":"2026-03-03T20:12:26.760096","MEAN_MOTION":13.12442281,"ECCENTRICITY":0.00019398,"INCLINATION":87.9002,"RA_OF_ASC_NODE":11.5469,"ARG_OF_PERICENTER":87.6513,"MEAN_ANOMALY":272.4838,"EPHEMERIS_TYPE":0,"CLASSIFICATION_TYPE":"U","NORAD_CAT_ID":47280,"ELEMENT_SET_NO":999,"REV_AT_EPOCH":25089,"BSTAR":0.0012645824,"MEAN_MOTION_DOT":4.68e-6,"MEAN_MOTION_DDOT":0},{"OBJECT_NAME":"ONEWEB-0135","OBJECT_ID":"2020-100Z","EPOCH":"2026-03-03T19:30:56.414880","MEAN_MOTION":13.12442286,"ECCENTRICITY":0.00019144,"INCLINATION":87.8987,"RA_OF_ASC_NODE":11.5888,"ARG_OF_PERICENTER":91.2099,"MEAN_ANOMALY":268.9249,"EPHEMERIS_TYPE":0,"CLASSIFICATION_TYPE":"U","NORAD_CAT_ID":47281,"ELEMENT_SET_NO":999,"REV_AT_EPOCH":25091,"BSTAR":-0.00073707473,"MEAN_MOTION_DOT":-2.52e-6,"MEAN_MOTION_DDOT":0},{"OBJECT_NAME":"ONEWEB-0136","OBJECT_ID":"2020-100AA","EPOCH":"2026-03-03T19:57:47.857824","MEAN_MOTION":13.12442017,"ECCENTRICITY":0.00021075,"INCLINATION":87.8999,"RA_OF_ASC_NODE":11.5579,"ARG_OF_PERICENTER":89.7318,"MEAN_ANOMALY":270.4052,"EPHEMERIS_TYPE":0,"CLASSIFICATION_TYPE":"U","NORAD_CAT_ID":47282,"ELEMENT_SET_NO":999,"REV_AT_EPOCH":25084,"BSTAR":0.00069791001,"MEAN_MOTION_DOT":2.64e-6,"MEAN_MOTION_DDOT":0},{"OBJECT_NAME":"ONEWEB-0137","OBJECT_ID":"2020-100AB","EPOCH":"2026-03-03T18:56:48.259680","MEAN_MOTION":13.12440781,"ECCENTRICITY":0.00018157,"INCLINATION":87.9001,"RA_OF_ASC_NODE":11.5716,"ARG_OF_PERICENTER":76.6,"MEAN_ANOMALY":283.5331,"EPHEMERIS_TYPE":0,"CLASSIFICATION_TYPE":"U","NORAD_CAT_ID":47283,"ELEMENT_SET_NO":999,"REV_AT_EPOCH":25074,"BSTAR":-0.00043893435,"MEAN_MOTION_DOT":-1.45e-6,"MEAN_MOTION_DDOT":0},{"OBJECT_NAME":"ONEWEB-0138","OBJECT_ID":"2020-100AC","EPOCH":"2026-03-03T20:14:53.015424","MEAN_MOTION":13.12442051,"ECCENTRICITY":0.00019929,"INCLINATION":87.9,"RA_OF_ASC_NODE":11.5703,"ARG_OF_PERICENTER":84.6927,"MEAN_ANOMALY":275.4428,"EPHEMERIS_TYPE":0,"CLASSIFICATION_TYPE":"U","NORAD_CAT_ID":47284,"ELEMENT_SET_NO":999,"REV_AT_EPOCH":25083,"BSTAR":0.0012422106,"MEAN_MOTION_DOT":4.6e-6,"MEAN_MOTION_DDOT":0},{"OBJECT_NAME":"ONEWEB-0139","OBJECT_ID":"2020-100AD","EPOCH":"2026-03-03T19:23:51.093600","MEAN_MOTION":13.12441444,"ECCENTRICITY":0.0001856,"INCLINATION":87.8995,"RA_OF_ASC_NODE":11.5646,"ARG_OF_PERICENTER":80.9095,"MEAN_ANOMALY":279.2243,"EPHEMERIS_TYPE":0,"CLASSIFICATION_TYPE":"U","NORAD_CAT_ID":47285,"ELEMENT_SET_NO":999,"REV_AT_EPOCH":25090,"BSTAR":-0.0010230351,"MEAN_MOTION_DOT":-3.55e-6,"MEAN_MOTION_DDOT":0},{"OBJECT_NAME":"ONEWEB-0140","OBJECT_ID":"2020-100AE","EPOCH":"2026-03-03T20:07:33.477888","MEAN_MOTION":13.12442767,"ECCENTRICITY":0.00017007,"INCLINATION":87.9001,"RA_OF_ASC_NODE":11.5469,"ARG_OF_PERICENTER":85.7536,"MEAN_ANOMALY":274.3787,"EPHEMERIS_TYPE":0,"CLASSIFICATION_TYPE":"U","NORAD_CAT_ID":47286,"ELEMENT_SET_NO":999,"REV_AT_EPOCH":25087,"BSTAR":0.0013755559,"MEAN_MOTION_DOT":5.08e-6,"MEAN_MOTION_DDOT":0},{"OBJECT_NAME":"ONEWEB-0141","OBJECT_ID":"2020-100AF","EPOCH":"2026-03-03T19:23:26.238912","MEAN_MOTION":13.12442831,"ECCENTRICITY":0.00019387,"INCLINATION":87.8997,"RA_OF_ASC_NODE":11.5595,"ARG_OF_PERICENTER":71.1087,"MEAN_ANOMALY":289.0251,"EPHEMERIS_TYPE":0,"CLASSIFICATION_TYPE":"U","NORAD_CAT_ID":47287,"ELEMENT_SET_NO":999,"REV_AT_EPOCH":25085,"BSTAR":-0.0010808144,"MEAN_MOTION_DOT":-3.76e-6,"MEAN_MOTION_DDOT":0},{"OBJECT_NAME":"ONEWEB-0142","OBJECT_ID":"2020-100AG","EPOCH":"2026-03-03T19:06:46.472544","MEAN_MOTION":13.12443047,"ECCENTRICITY":0.00021913,"INCLINATION":87.8997,"RA_OF_ASC_NODE":11.5862,"ARG_OF_PERICENTER":75.4447,"MEAN_ANOMALY":284.6924,"EPHEMERIS_TYPE":0,"CLASSIFICATION_TYPE":"U","NORAD_CAT_ID":47288,"ELEMENT_SET_NO":999,"REV_AT_EPOCH":25084,"BSTAR":-0.00090956505,"MEAN_MOTION_DOT":-3.14e-6,"MEAN_MOTION_DDOT":0},{"OBJECT_NAME":"ONEWEB-0143","OBJECT_ID":"2020-100AH","EPOCH":"2026-03-03T19:21:11.613024","MEAN_MOTION":13.12442145,"ECCENTRICITY":0.00018239,"INCLINATION":87.8995,"RA_OF_ASC_NODE":11.5805,"ARG_OF_PERICENTER":78.6509,"MEAN_ANOMALY":281.4824,"EPHEMERIS_TYPE":0,"CLASSIFICATION_TYPE":"U","NORAD_CAT_ID":47289,"ELEMENT_SET_NO":999,"REV_AT_EPOCH":25082,"BSTAR":-0.0011242801,"MEAN_MOTION_DOT":-3.92e-6,"MEAN_MOTION_DDOT":0},{"OBJECT_NAME":"ONEWEB-0144","OBJECT_ID":"2020-100AJ","EPOCH":"2026-03-03T20:29:29.833728","MEAN_MOTION":13.12452084,"ECCENTRICITY":0.00022891,"INCLINATION":87.8998,"RA_OF_ASC_NODE":11.5408,"ARG_OF_PERICENTER":83.9591,"MEAN_ANOMALY":276.1798,"EPHEMERIS_TYPE":0,"CLASSIFICATION_TYPE":"U","NORAD_CAT_ID":47290,"ELEMENT_SET_NO":999,"REV_AT_EPOCH":25075,"BSTAR":0.0035587758,"MEAN_MOTION_DOT":1.293e-5,"MEAN_MOTION_DDOT":0},{"OBJECT_NAME":"ONEWEB-0145","OBJECT_ID":"2020-100AK","EPOCH":"2026-03-03T19:48:02.347488","MEAN_MOTION":13.12442584,"ECCENTRICITY":0.00019325,"INCLINATION":87.8997,"RA_OF_ASC_NODE":11.5849,"ARG_OF_PERICENTER":80.7194,"MEAN_ANOMALY":279.4153,"EPHEMERIS_TYPE":0,"CLASSIFICATION_TYPE":"U","NORAD_CAT_ID":47291,"ELEMENT_SET_NO":999,"REV_AT_EPOCH":25094,"BSTAR":0.0002722292,"MEAN_MOTION_DOT":1.11e-6,"MEAN_MOTION_DDOT":0},{"OBJECT_NAME":"ONEWEB-0146","OBJECT_ID":"2020-100AL","EPOCH":"2026-03-03T19:43:07.953312","MEAN_MOTION":13.12442548,"ECCENTRICITY":0.00014956,"INCLINATION":87.8997,"RA_OF_ASC_NODE":11.5706,"ARG_OF_PERICENTER":81.5849,"MEAN_ANOMALY":278.5449,"EPHEMERIS_TYPE":0,"CLASSIFICATION_TYPE":"U","NORAD_CAT_ID":47292,"ELEMENT_SET_NO":999,"REV_AT_EPOCH":25085,"BSTAR":-9.7907137e-5,"MEAN_MOTION_DOT":-2.3e-7,"MEAN_MOTION_DDOT":0},{"OBJECT_NAME":"ONEWEB-0147","OBJECT_ID":"2020-100AM","EPOCH":"2026-03-03T20:44:09.136896","MEAN_MOTION":13.12441036,"ECCENTRICITY":0.00018788,"INCLINATION":87.9,"RA_OF_ASC_NODE":11.5421,"ARG_OF_PERICENTER":89.401,"MEAN_ANOMALY":270.7334,"EPHEMERIS_TYPE":0,"CLASSIFICATION_TYPE":"U","NORAD_CAT_ID":47293,"ELEMENT_SET_NO":999,"REV_AT_EPOCH":25075,"BSTAR":-0.00024810045,"MEAN_MOTION_DOT":-7.7e-7,"MEAN_MOTION_DDOT":0},{"OBJECT_NAME":"ONEWEB-0115","OBJECT_ID":"2021-025A","EPOCH":"2026-03-03T19:43:49.626624","MEAN_MOTION":13.13469477,"ECCENTRICITY":0.00016828,"INCLINATION":87.9049,"RA_OF_ASC_NODE":341.1738,"ARG_OF_PERICENTER":79.0551,"MEAN_ANOMALY":281.0768,"EPHEMERIS_TYPE":0,"CLASSIFICATION_TYPE":"U","NORAD_CAT_ID":48042,"ELEMENT_SET_NO":999,"REV_AT_EPOCH":23976,"BSTAR":0.00044694146,"MEAN_MOTION_DOT":1.76e-6,"MEAN_MOTION_DDOT":0},{"OBJECT_NAME":"ONEWEB-0152","OBJECT_ID":"2021-025B","EPOCH":"2026-03-03T18:13:37.833024","MEAN_MOTION":13.13469253,"ECCENTRICITY":0.00016045,"INCLINATION":87.9047,"RA_OF_ASC_NODE":341.1882,"ARG_OF_PERICENTER":80.1984,"MEAN_ANOMALY":279.9326,"EPHEMERIS_TYPE":0,"CLASSIFICATION_TYPE":"U","NORAD_CAT_ID":48043,"ELEMENT_SET_NO":999,"REV_AT_EPOCH":23971,"BSTAR":0.00096717829,"MEAN_MOTION_DOT":3.66e-6,"MEAN_MOTION_DDOT":0},{"OBJECT_NAME":"ONEWEB-0153","OBJECT_ID":"2021-025C","EPOCH":"2026-03-03T19:31:38.403552","MEAN_MOTION":13.13469775,"ECCENTRICITY":0.00018274,"INCLINATION":87.904,"RA_OF_ASC_NODE":341.1828,"ARG_OF_PERICENTER":77.5345,"MEAN_ANOMALY":282.5988,"EPHEMERIS_TYPE":0,"CLASSIFICATION_TYPE":"U","NORAD_CAT_ID":48044,"ELEMENT_SET_NO":999,"REV_AT_EPOCH":23971,"BSTAR":-0.00013980208,"MEAN_MOTION_DOT":-3.8e-7,"MEAN_MOTION_DDOT":0},{"OBJECT_NAME":"ONEWEB-0154","OBJECT_ID":"2021-025D","EPOCH":"2026-03-03T19:26:45.578400","MEAN_MOTION":13.1347091,"ECCENTRICITY":0.00017241,"INCLINATION":87.9041,"RA_OF_ASC_NODE":341.1812,"ARG_OF_PERICENTER":82.4083,"MEAN_ANOMALY":277.7242,"EPHEMERIS_TYPE":0,"CLASSIFICATION_TYPE":"U","NORAD_CAT_ID":48045,"ELEMENT_SET_NO":999,"REV_AT_EPOCH":23967,"BSTAR":-0.0002933938,"MEAN_MOTION_DOT":-9.4e-7,"MEAN_MOTION_DDOT":0},{"OBJECT_NAME":"ONEWEB-0116","OBJECT_ID":"2021-025E","EPOCH":"2026-03-03T20:22:49.596960","MEAN_MOTION":13.13468384,"ECCENTRICITY":0.0001614,"INCLINATION":87.9052,"RA_OF_ASC_NODE":341.161,"ARG_OF_PERICENTER":78.6289,"MEAN_ANOMALY":281.5021,"EPHEMERIS_TYPE":0,"CLASSIFICATION_TYPE":"U","NORAD_CAT_ID":48046,"ELEMENT_SET_NO":999,"REV_AT_EPOCH":23982,"BSTAR":0.00042388993,"MEAN_MOTION_DOT":1.68e-6,"MEAN_MOTION_DDOT":0},{"OBJECT_NAME":"ONEWEB-0150","OBJECT_ID":"2021-025F","EPOCH":"2026-03-03T19:48:42.149376","MEAN_MOTION":13.13469423,"ECCENTRICITY":0.00017709,"INCLINATION":87.9049,"RA_OF_ASC_NODE":341.1629,"ARG_OF_PERICENTER":72.0249,"MEAN_ANOMALY":288.1073,"EPHEMERIS_TYPE":0,"CLASSIFICATION_TYPE":"U","NORAD_CAT_ID":48047,"ELEMENT_SET_NO":999,"REV_AT_EPOCH":23971,"BSTAR":0.00060670601,"MEAN_MOTION_DOT":2.34e-6,"MEAN_MOTION_DDOT":0},{"OBJECT_NAME":"ONEWEB-0107","OBJECT_ID":"2021-025G","EPOCH":"2026-03-03T19:51:08.255232","MEAN_MOTION":13.13468882,"ECCENTRICITY":0.00020291,"INCLINATION":87.9048,"RA_OF_ASC_NODE":341.1581,"ARG_OF_PERICENTER":77.6191,"MEAN_ANOMALY":282.5165,"EPHEMERIS_TYPE":0,"CLASSIFICATION_TYPE":"U","NORAD_CAT_ID":48048,"ELEMENT_SET_NO":999,"REV_AT_EPOCH":23969,"BSTAR":0.00077776737,"MEAN_MOTION_DOT":2.97e-6,"MEAN_MOTION_DDOT":0}]
